{
"type": "FeatureCollection",
"name": "puntos_interes_medellin_amenity_courthouse",
"crs": { "type": "name", "properties": { "name": "urn:ogc:def:crs:OGC:1.3:CRS84" } },
"features": [
{ "type": "Feature", "properties": { "element_type": "node", "osmid": 4403661789, "amenity": "courthouse", "addr:city": null, "addr:housenumber": null, "addr:street": null, "name": null, "operator": null, "nodes": null, "alt_name": null, "building": null, "int_name": null, "office": null, "old_name": null }, "geometry": { "type": "Point", "coordinates": [ -75.5401422, 6.2958132 ] } },
{ "type": "Feature", "properties": { "element_type": "node", "osmid": 4606681382, "amenity": "courthouse", "addr:city": "Medellín", "addr:housenumber": "47A - 47", "addr:street": "Carrera 83", "name": "Unidad Ley de Infancia y Adolescencia", "operator": "Fiscalía General de la Nación", "nodes": null, "alt_name": null, "building": null, "int_name": null, "office": null, "old_name": null }, "geometry": { "type": "Point", "coordinates": [ -75.6009106, 6.2579071 ] } },
{ "type": "Feature", "properties": { "element_type": "node", "osmid": 5426993573, "amenity": "courthouse", "addr:city": null, "addr:housenumber": "cra 28-63", "addr:street": "Calle 68", "name": null, "operator": null, "nodes": null, "alt_name": null, "building": null, "int_name": null, "office": null, "old_name": null }, "geometry": { "type": "Point", "coordinates": [ -75.5419211, 6.2647393 ] } },
{ "type": "Feature", "properties": { "element_type": "node", "osmid": 5460480334, "amenity": "courthouse", "addr:city": "Comuna 3 - Manrique", "addr:housenumber": "68 b-40", "addr:street": "Carrera 28", "name": "civil, municipal", "operator": null, "nodes": null, "alt_name": null, "building": null, "int_name": null, "office": null, "old_name": null }, "geometry": { "type": "Point", "coordinates": [ -75.5431429, 6.263535 ] } },
{ "type": "Feature", "properties": { "element_type": "way", "osmid": 32470439, "amenity": "courthouse", "addr:city": null, "addr:housenumber": null, "addr:street": null, "name": "Palacio de Justicia José Feliz de Restrepo", "operator": null, "alt_name": "Juzgados", "building": "yes", "int_name": "Courts of Justice", "office": "government", "old_name": "Juzgados" }, "geometry": { "type": "Polygon", "coordinates": [ [ [ -75.5722942, 6.2446959 ], [ -75.572296, 6.2444639 ], [ -75.5727704, 6.2444676 ], [ -75.5727686, 6.2446996 ], [ -75.5722942, 6.2446959 ] ] ] } },
{ "type": "Feature", "properties": { "element_type": "way", "osmid": 551092376, "amenity": "courthouse", "addr:city": null, "addr:housenumber": null, "addr:street": null, "name": "Edificio Atlas-Juzgados Administrativos", "operator": "Rama Judicial", "alt_name": null, "building": "yes", "int_name": null, "office": null, "old_name": null }, "geometry": { "type": "Polygon", "coordinates": [ [ [ -75.5705207, 6.2424722 ], [ -75.5707602, 6.2418828 ], [ -75.5704608, 6.2417519 ], [ -75.5704199, 6.2418532 ], [ -75.5703781, 6.2419565 ], [ -75.5702176, 6.2423534 ], [ -75.5705207, 6.2424722 ] ] ] } }
]
}
