{
"type": "FeatureCollection",
"name": "puntos_interes_medellin_office_lawyer",
"crs": { "type": "name", "properties": { "name": "urn:ogc:def:crs:OGC:1.3:CRS84" } },
"features": [
{ "type": "Feature", "properties": { "element_type": "node", "osmid": 5168887218, "name": "ApostillayLegalizaEnVenezuela", "office": "lawyer", "website": "https://www.woohands.com/en/provider-profile/apostillaylegalizaenvenezuela-1", "lawyer": null, "name:es": null, "name:en": null, "opening_hours": null, "phone": null, "nodes": null, "addr:city": null, "addr:street": null, "building": null }, "geometry": { "type": "Point", "coordinates": [ -75.5594697, 6.1965566 ] } },
{ "type": "Feature", "properties": { "element_type": "node", "osmid": 5322269429, "name": null, "office": "lawyer", "website": null, "lawyer": "notary", "name:es": null, "name:en": null, "opening_hours": null, "phone": null, "nodes": null, "addr:city": null, "addr:street": null, "building": null }, "geometry": { "type": "Point", "coordinates": [ -75.5710762, 6.2450989 ] } },
{ "type": "Feature", "properties": { "element_type": "node", "osmid": 5548531936, "name": "Notaria 29", "office": "lawyer", "website": null, "lawyer": null, "name:es": "Notaria 29", "name:en": null, "opening_hours": null, "phone": null, "nodes": null, "addr:city": null, "addr:street": null, "building": null }, "geometry": { "type": "Point", "coordinates": [ -75.6022755, 6.2292431 ] } },
{ "type": "Feature", "properties": { "element_type": "node", "osmid": 7514569285, "name": "Notaria 6", "office": "lawyer", "website": null, "lawyer": null, "name:es": null, "name:en": "Notary 6", "opening_hours": "Mo-Su 08:00-12:00, 14:00-18:00", "phone": "+57 4 3222870", "nodes": null, "addr:city": null, "addr:street": null, "building": null }, "geometry": { "type": "Point", "coordinates": [ -75.5931734, 6.244523 ] } },
{ "type": "Feature", "properties": { "element_type": "node", "osmid": 9181672517, "name": null, "office": "lawyer", "website": null, "lawyer": null, "name:es": null, "name:en": null, "opening_hours": null, "phone": null, "nodes": null, "addr:city": null, "addr:street": null, "building": null }, "geometry": { "type": "Point", "coordinates": [ -75.5846849, 6.2564341 ] } },
{ "type": "Feature", "properties": { "element_type": "way", "osmid": 1233743276, "name": "Centro Jurídico Araucaria", "office": "lawyer", "website": "https://centrojuridicoaraucaria.com/", "lawyer": null, "name:es": null, "name:en": null, "opening_hours": "Mo-Fr 08:00-17:00", "phone": "+573165242476", "addr:city": "Medellín", "addr:street": "Carrera 46  52  -25 of 309", "building": "yes" }, "geometry": { "type": "Polygon", "coordinates": [ [ [ -75.5649239, 6.249372 ], [ -75.5647024, 6.2498098 ], [ -75.5646893, 6.2498033 ], [ -75.5646032, 6.2497605 ], [ -75.5648436, 6.2493351 ], [ -75.5649239, 6.249372 ] ] ] } }
]
}
